ONEWEB-0283             
1 49001U 21060AL  24215.11271376  .00000030  00000+0  44614-4 0  9990
2 49001  87.9128   4.9860 0001635  86.9134 273.2184 13.16593064150926
ONEWEB-0284             
1 49002U 21060AM  24215.18237743  .00000032  00000+0  49249-4 0  9999
2 49002  87.9122   4.9532 0001582  98.4185 261.7125 13.16595858150900
ONEWEB-0285             
1 49075U 21075A   24215.51786943  .00000365  00000+0  98053-3 0  9998
2 49075  87.8948 126.8207 0001911  77.1079 283.0263 13.12443966146510
ONEWEB-0286             
1 49076U 21075B   24215.48932786 -.00000142  00000+0 -43050-3 0  9995
2 49076  87.8945 126.8275 0002199  82.5937 277.5441 13.12446226145860
ONEWEB-0287             
1 49077U 21075C   24215.20999734 -.00000268  00000+0 -72435-3 0  9990
2 49077  87.9190 142.0662 0001993  86.5253 273.6107 13.17649380144529
ONEWEB-0288             
1 49078U 21075D   24214.78941040 -.00000616  00000+0 -17481-2 0  9996
2 49078  87.8944 126.9702 0001929  81.9655 278.1692 13.12442704145410
ONEWEB-0289             
1 49079U 21075E   24215.16314897  .00000023  00000+0  25350-4 0  9990
2 49079  87.9192 142.1037 0001960  75.9458 284.1891 13.17647521145098
ONEWEB-0290             
1 49080U 21075F   24215.52505827  .00000017  00000+0  11835-4 0  9993
2 49080  87.9190 141.9923 0001796  90.3672 269.7665 13.17649178144564
